AEROCUBE 8D             
1 41852U 16067E   26068.53082619  .00009137  00000+0  39319-3 0  9993
2 41852  98.0830 291.1456 0004760 111.8703 248.3038 15.22872123510890
YAOGAN-39 02A           
1 57886U 23145A   26068.56217564  .00013907  00000+0  57738-3 0  9999
2 57886  35.0023 106.9754 0002832 165.4765 194.6032 15.23019263137974
