[{"OBJECT_NAME":"AEROCUBE 8D","OBJECT_ID":"2016-067E","EPOCH":"2026-03-09T12:44:23.382816","MEAN_MOTION":15.22872123,"ECCENTRICITY":0.000476,"INCLINATION":98.083,"RA_OF_ASC_NODE":291.1456,"ARG_OF_PERICENTER":111.8703,"MEAN_ANOMALY":248.3038,"EPHEMERIS_TYPE":0,"CLASSIFICATION_TYPE":"U","NORAD_CAT_ID":41852,"ELEMENT_SET_NO":999,"REV_AT_EPOCH":51089,"BSTAR":0.00039318756,"MEAN_MOTION_DOT":9.137e-5,"MEAN_MOTION_DDOT":0},{"OBJECT_NAME":"YAOGAN-39 02A","OBJECT_ID":"2023-145A","EPOCH":"2026-03-09T13:29:31.975296","MEAN_MOTION":15.23019263,"ECCENTRICITY":0.0002832,"INCLINATION":35.0023,"RA_OF_ASC_NODE":106.9754,"ARG_OF_PERICENTER":165.4765,"MEAN_ANOMALY":194.6032,"EPHEMERIS_TYPE":0,"CLASSIFICATION_TYPE":"U","NORAD_CAT_ID":57886,"ELEMENT_SET_NO":999,"REV_AT_EPOCH":13797,"BSTAR":0.00057738,"MEAN_MOTION_DOT":0.00013907,"MEAN_MOTION_DDOT":0}]
